STARLINK-32260          
1 61522U 24183P   26068.47707408 -.00000350  00000+0  29116-6 0  9996
2 61522  53.1603 143.1540 0001230 111.0230 249.0903 15.30189376 79622
TEVEL2-3                
1 63218U 25052J   26068.64540225  .00020365  00000+0  69446-3 0  9991
2 63218  97.3994 324.7775 0004761 105.7353 254.4413 15.30377031 54855
